{
    "links": {
        "self": "http://www.neowsapp.com/rest/v1/neo/3436407?api_key=iIulBulltgU6a56xZRHN4H3l9WmuAYTsLGpBGhQ2"
    },
    "id": "3436407",
    "neo_reference_id": "3436407",
    "name": "(2008 VU3)",
    "designation": "2008 VU3",
    "nasa_jpl_url": "http://ssd.jpl.nasa.gov/sbdb.cgi?sstr=3436407",
    "absolute_magnitude_h": 23.4,
    "estimated_diameter": {
        "kilometers": {
            "estimated_diameter_min": 0.0555334912,
            "estimated_diameter_max": 0.1241766613
        },
        "meters": {
            "estimated_diameter_min": 55.5334911581,
            "estimated_diameter_max": 124.1766612574
        },
        "miles": {
            "estimated_diameter_min": 0.0345069009,
            "estimated_diameter_max": 0.0771597762
        },
        "feet": {
            "estimated_diameter_min": 182.1964991311,
            "estimated_diameter_max": 407.4037573197
        }
    },
    "is_potentially_hazardous_asteroid": false,
    "close_approach_data": [
        {
            "close_approach_date": "1945-11-30",
            "close_approach_date_full": "1945-Nov-30 04:55",
            "epoch_date_close_approach": -760129500000,
            "relative_velocity": {
                "kilometers_per_second": "20.5318759044",
                "kilometers_per_hour": "73914.7532559178",
                "miles_per_hour": "45927.7532106007"
            },
            "miss_distance": {
                "astronomical": "0.310281653",
                "lunar": "120.699563017",
                "kilometers": "46417474.38887911",
                "miles": "28842481.141627318"
            },
            "orbiting_body": "Earth"
        },
        {
            "close_approach_date": "2004-12-03",
            "close_approach_date_full": "2004-Dec-03 08:23",
            "epoch_date_close_approach": 1102062180000,
            "relative_velocity": {
                "kilometers_per_second": "22.5505980039",
                "kilometers_per_hour": "81182.1528139496",
                "miles_per_hour": "50443.4326748678"
            },
            "miss_distance": {
                "astronomical": "0.3826858527",
                "lunar": "148.8647967003",
                "kilometers": "57248988.443053749",
                "miles": "35572871.8825257762"
            },
            "orbiting_body": "Earth"
        },
        {
            "close_approach_date": "2008-10-29",
            "close_approach_date_full": "2008-Oct-29 15:33",
            "epoch_date_close_approach": 1225294380000,
            "relative_velocity": {
                "kilometers_per_second": "11.2376844063",
                "kilometers_per_hour": "40455.6638626541",
                "miles_per_hour": "25137.5762484364"
            },
            "miss_distance": {
                "astronomical": "0.0096226713",
                "lunar": "3.7432191357",
                "kilometers": "1439531.130190131",
                "miles": "894483.1665645678"
            },
            "orbiting_body": "Moon"
        },
        {
            "close_approach_date": "2008-10-30",
            "close_approach_date_full": "2008-Oct-30 00:46",
            "epoch_date_close_approach": 1225327560000,
            "relative_velocity": {
                "kilometers_per_second": "10.6178787953",
                "kilometers_per_hour": "38224.3636629662",
                "miles_per_hour": "23751.1330771359"
            },
            "miss_distance": {
                "astronomical": "0.0095500395",
                "lunar": "3.7149653655",
                "kilometers": "1428665.567615865",
                "miles": "887731.619054337"
            },
            "orbiting_body": "Earth"
        },
        {
            "close_approach_date": "2012-08-05",
            "close_approach_date_full": "2012-Aug-05 03:27",
            "epoch_date_close_approach": 1344137220000,
            "relative_velocity": {
                "kilometers_per_second": "16.7738052182",
                "kilometers_per_hour": "60385.698785529",
                "miles_per_hour": "37521.3248925972"
            },
            "miss_distance": {
                "astronomical": "0.2119751086",
                "lunar": "82.4583172454",
                "kilometers": "31711024.739578682",
                "miles": "19704317.0718505316"
            },
            "orbiting_body": "Earth"
        }
    ],
    "orbital_data": {
        "orbit_id": "17",
        "orbit_determination_date": "2017-04-06 09:02:16",
        "first_observation_date": "2008-11-02",
        "last_observation_date": "2008-11-29",
        "data_arc_in_days": 27,
        "observations_used": 82,
        "orbit_uncertainty": "7",
        "minimum_orbit_intersection": ".00863693",
        "jupiter_tisserand_invariant": "3.177",
        "epoch_osculation": "2459000.5",
        "eccentricity": ".6184857108429651",
        "semi_major_axis": "2.486437028988526",
        "inclination": "3.936666461992442",
        "ascending_node_longitude": "223.919650041982",
        "orbital_period": "1432.07124385424",
        "perihelion_distance": ".9486112556482874",
        "perihelion_argument": "144.50229246741",
        "aphelion_distance": "4.024262802328765",
        "perihelion_time": "2459039.497751551963",
        "mean_anomaly": "350.1965837112112",
        "mean_motion": ".2513841413581529",
        "equinox": "J2000",
        "orbit_class": {
            "orbit_class_type": "APO",
            "orbit_class_description": "Near-Earth asteroid orbits which cross the Earth’s orbit similar to that of 1862 Apollo",
            "orbit_class_range": "a (semi-major axis) > 1.0 AU; q (perihelion) < 1.017 AU"
        }
    },
    "is_sentry_object": false
}